MALLIGYONG-1            
1 58400U 23179A   23354.16098465  .00007042  00000+0  31466-3 0  9990
2 58400  97.4259 238.5604 0015776 171.8998 188.2496 15.21535362  4344
